{"fetched_at":"2026-03-29T16:36:15Z","count":15609,"tles":[{"name":"STARLINK-11350 [DTC]","line1":"1 61540U 24184J   26087.86261862 -.00000109  00000+0  39614-5 0  9995","line2":"2 61540  53.1590 141.3817 0001059  62.4718 297.6407 15.69710085 83434","category":"Starlink"}]}